{"type": "FeatureCollection", "features": [ {"type": "Feature", "properties": {"norad_id": 40697, "name": "SENTINEL-2A", "group": "resource", "lat": 0.19027137978210776, "lon": 58.18103963721873, "alt_km": 791.8982731701453, "timestamp": "2025-12-11T15:53:39.199365+00:00", "meta": {"OBJECT_NAME": "SENTINEL-2A", "OBJECT_ID": "2015-028A", "EPOCH": "2025-12-11T05:49:24.089088", "MEAN_MOTION": 14.30812373, "ECCENTRICITY": 0.00011033, "INCLINATION": 98.5686, "RA_OF_ASC_NODE": 57.7962, "ARG_OF_PERICENTER": 89.6458, "MEAN_ANOMALY": 270.4851, "EPHEMERIS_TYPE": 0, "CLASSIFICATION_TYPE": "U", "NORAD_CAT_ID": 40697, "ELEMENT_SET_NO": 999, "REV_AT_EPOCH": 54685, "BSTAR": 0.00013218265, "MEAN_MOTION_DOT": 3.03e-06, "MEAN_MOTION_DDOT": 0}, "tle": {"line1": "1 40697U 15028A   25345.24263992  .00000303  00000+0  13218-3 0  9991", "line2": "2 40697  98.5686  57.7962 0001103  89.6458 270.4851 14.30812373546858"}}, "geometry": {"type": "Point", "coordinates": [58.18103963721873, 0.19027137978210776]}}, {"type": "Feature", "properties": {"norad_id": 40701, "name": "GAOFEN-8", "group": "resource", "lat": -10.15679329736239, "lon": 165.1373356495813, "alt_km": 461.87516646597305, "timestamp": "2025-12-11T15:53:39.199375+00:00", "meta": {"OBJECT_NAME": "GAOFEN-8", "OBJECT_ID": "2015-030A", "EPOCH": "2025-12-11T06:34:22.005984", "MEAN_MOTION": 15.38464623, "ECCENTRICITY": 0.00115876, "INCLINATION": 97.6914, "RA_OF_ASC_NODE": 163.3428, "ARG_OF_PERICENTER": 142.7955, "MEAN_ANOMALY": 217.4094, "EPHEMERIS_TYPE": 0, "CLASSIFICATION_TYPE": "U", "NORAD_CAT_ID": 40701, "ELEMENT_SET_NO": 999, "REV_AT_EPOCH": 58248, "BSTAR": 0.00064741266, "MEAN_MOTION_DOT": 0.00024584, "MEAN_MOTION_DDOT": 0}, "tle": {"line1": "1 40701U 15030A   25345.27386581  .00024584  00000+0  64741-3 0  9997", "line2": "2 40701  97.6914 163.3428 0011587 142.7955 217.4094 15.38464623582488"}}, "geometry": {"type": "Point", "coordinates": [165.1373356495813, -10.15679329736239]}}, {"type": "Feature", "properties": {"norad_id": 40718, "name": "CARBONITE 1 (CBNT-1)", "group": "resource", "lat": 42.16774679154574, "lon": -6.262542234579167, "alt_km": 610.6168104217704, "timestamp": "2025-12-11T15:53:39.199385+00:00", "meta": {"OBJECT_NAME": "CARBONITE 1 (CBNT-1)", "OBJECT_ID": "2015-032D", "EPOCH": "2025-12-11T05:33:31.442688", "MEAN_MOTION": 14.82729869, "ECCENTRICITY": 0.00142264, "INCLINATION": 97.6405, "RA_OF_ASC_NODE": 166.3425, "ARG_OF_PERICENTER": 186.5367, "MEAN_ANOMALY": 173.5664, "EPHEMERIS_TYPE": 0, "CLASSIFICATION_TYPE": "U", "NORAD_CAT_ID": 40718, "ELEMENT_SET_NO": 999, "REV_AT_EPOCH": 56148, "BSTAR": 0.00033979535, "MEAN_MOTION_DOT": 2.698e-05, "MEAN_MOTION_DDOT": 0}, "tle": {"line1": "1 40718U 15032D   25345.23161392  .00002698  00000+0  33980-3 0  9997", "line2": "2 40718  97.6405 166.3425 0014226 186.5367 173.5664 14.82729869561483"}}, "geometry": {"type": "Point", "coordinates": [-6.262542234579167, 42.16774679154574]}}, {"type": "Feature", "properties": {"norad_id": 40878, "name": "YAOGAN-27", "group": "resource", "lat": 57.34332751706506, "lon": 171.4785415114083, "alt_km": 1199.83459193021, "timestamp": "2025-12-11T15:53:39.199396+00:00", "meta": {"OBJECT_NAME": "YAOGAN-27", "OBJECT_ID": "2015-040A", "EPOCH": "2025-12-11T06:09:27.545184", "MEAN_MOTION": 13.16061848, "ECCENTRICITY": 0.00076297, "INCLINATION": 100.1013, "RA_OF_ASC_NODE": 334.9432, "ARG_OF_PERICENTER": 290.6243, "MEAN_ANOMALY": 69.4052, "EPHEMERIS_TYPE": 0, "CLASSIFICATION_TYPE": "U", "NORAD_CAT_ID": 40878, "ELEMENT_SET_NO": 999, "REV_AT_EPOCH": 49294, "BSTAR": 0.0015420823, "MEAN_MOTION_DOT": 5.43e-06, "MEAN_MOTION_DDOT": 0}, "tle": {"line1": "1 40878U 15040A   25345.25656881  .00000543  00000+0  15421-2 0  9993", "line2": "2 40878 100.1013 334.9432 0007629 290.6243  69.4052 13.16061848492945"}}, "geometry": {"type": "Point", "coordinates": [171.4785415114083, 57.34332751706506]}}, {"type": "Feature", "properties": {"norad_id": 40894, "name": "GAOFEN-9 01", "group": "resource", "lat": 58.71096414571173, "lon": 11.87971092326567, "alt_km": 597.5048321016602, "timestamp": "2025-12-11T15:53:39.199406+00:00", "meta": {"OBJECT_NAME": "GAOFEN-9 01", "OBJECT_ID": "2015-047A", "EPOCH": "2025-12-11T07:31:41.176128", "MEAN_MOTION": 14.82424223, "ECCENTRICITY": 0.0028507, "INCLINATION": 97.6544, "RA_OF_ASC_NODE": 24.3307, "ARG_OF_PERICENTER": 38.794, "MEAN_ANOMALY": 321.5313, "EPHEMERIS_TYPE": 0, "CLASSIFICATION_TYPE": "U", "NORAD_CAT_ID": 40894, "ELEMENT_SET_NO": 999, "REV_AT_EPOCH": 55235, "BSTAR": 0.00037105222, "MEAN_MOTION_DOT": 2.944e-05, "MEAN_MOTION_DDOT": 0}, "tle": {"line1": "1 40894U 15047A   25345.31367102  .00002944  00000+0  37105-3 0  9991", "line2": "2 40894  97.6544  24.3307 0028507  38.7940 321.5313 14.82424223552354"}}, "geometry": {"type": "Point", "coordinates": [11.87971092326567, 58.71096414571173]}}, {"type": "Feature", "properties": {"norad_id": 41026, "name": "YAOGAN-28", "group": "resource", "lat": 47.80935819622059, "lon": 115.37661944651289, "alt_km": 487.1869813029016, "timestamp": "2025-12-11T15:53:39.199416+00:00", "meta": {"OBJECT_NAME": "YAOGAN-28", "OBJECT_ID": "2015-064A", "EPOCH": "2025-12-11T07:48:19.776960", "MEAN_MOTION": 15.24333956, "ECCENTRICITY": 0.00123295, "INCLINATION": 97.2805, "RA_OF_ASC_NODE": 123.1573, "ARG_OF_PERICENTER": 130.5249, "MEAN_ANOMALY": 229.7065, "EPHEMERIS_TYPE": 0, "CLASSIFICATION_TYPE": "U", "NORAD_CAT_ID": 41026, "ELEMENT_SET_NO": 999, "REV_AT_EPOCH": 56203, "BSTAR": 0.0011440145, "MEAN_MOTION_DOT": 0.00028053, "MEAN_MOTION_DDOT": 0}, "tle": {"line1": "1 41026U 15064A   25345.32522890  .00028053  00000+0  11440-2 0  9998", "line2": "2 41026  97.2805 123.1573 0012329 130.5249 229.7065 15.24333956562037"}}, "geometry": {"type": "Point", "coordinates": [115.37661944651289, 47.80935819622059]}}, {"type": "Feature", "properties": {"norad_id": 41038, "name": "YAOGAN-29", "group": "resource", "lat": -53.82520335251143, "lon": 19.950386023504805, "alt_km": 627.0920330353811, "timestamp": "2025-12-11T15:53:39.199426+00:00", "meta": {"OBJECT_NAME": "YAOGAN-29", "OBJECT_ID": "2015-069A", "EPOCH": "2025-12-11T08:02:33.956736", "MEAN_MOTION": 14.82878069, "ECCENTRICITY": 2.971e-05, "INCLINATION": 98.022, "RA_OF_ASC_NODE": 8.502, "ARG_OF_PERICENTER": 337.7236, "MEAN_ANOMALY": 22.3964, "EPHEMERIS_TYPE": 0, "CLASSIFICATION_TYPE": "U", "NORAD_CAT_ID": 41038, "ELEMENT_SET_NO": 999, "REV_AT_EPOCH": 54278, "BSTAR": 3.5955018e-05, "MEAN_MOTION_DOT": 2.37e-06, "MEAN_MOTION_DDOT": 0}, "tle": {"line1": "1 41038U 15069A   25345.33511524  .00000237  00000+0  35955-4 0  9992", "line2": "2 41038  98.0220   8.5020 0000297 337.7236  22.3964 14.82878069542788"}}, "geometry": {"type": "Point", "coordinates": [19.950386023504805, -53.82520335251143]}}, {"type": "Feature", "properties": {"norad_id": 41167, "name": "KENT RIDGE 1", "group": "resource", "lat": 4.826951034318707, "lon": -122.44457342934001, "alt_km": 498.1720576180978, "timestamp": "2025-12-11T15:53:39.199437+00:00", "meta": {"OBJECT_NAME": "KENT RIDGE 1", "OBJECT_ID": "2015-077B", "EPOCH": "2025-12-10T22:30:20.164032", "MEAN_MOTION": 15.21613004, "ECCENTRICITY": 0.0008534, "INCLINATION": 14.9787, "RA_OF_ASC_NODE": 224.5126, "ARG_OF_PERICENTER": 105.1226, "MEAN_ANOMALY": 255.004, "EPHEMERIS_TYPE": 0, "CLASSIFICATION_TYPE": "U", "NORAD_CAT_ID": 41167, "ELEMENT_SET_NO": 999, "REV_AT_EPOCH": 55236, "BSTAR": 0.000254, "MEAN_MOTION_DOT": 6.673e-05, "MEAN_MOTION_DDOT": 0}, "tle": {"line1": "1 41167U 15077B   25344.93773338  .00006673  00000+0  25400-3 0  9995", "line2": "2 41167  14.9787 224.5126 0008534 105.1226 255.0040 15.21613004552366"}}, "geometry": {"type": "Point", "coordinates": [-122.44457342934001, 4.826951034318707]}}, {"type": "Feature", "properties": {"norad_id": 41194, "name": "GAOFEN-4", "group": "resource", "lat": -0.027544715893904847, "lon": 64.69229738240892, "alt_km": 35794.80398550115, "timestamp": "2025-12-11T15:53:39.199449+00:00", "meta": {"OBJECT_NAME": "GAOFEN-4", "OBJECT_ID": "2015-083A", "EPOCH": "2025-12-11T00:19:06.646368", "MEAN_MOTION": 1.00270154, "ECCENTRICITY": 0.00035613, "INCLINATION": 0.1664, "RA_OF_ASC_NODE": 80.8595, "ARG_OF_PERICENTER": 106.7629, "MEAN_ANOMALY": 2.8369, "EPHEMERIS_TYPE": 0, "CLASSIFICATION_TYPE": "U", "NORAD_CAT_ID": 41194, "ELEMENT_SET_NO": 999, "REV_AT_EPOCH": 3664, "BSTAR": 0, "MEAN_MOTION_DOT": -3.29e-06, "MEAN_MOTION_DDOT": 0}, "tle": {"line1": "1 41194U 15083A   25345.01327137 -.00000329  00000+0  00000+0 0  9992", "line2": "2 41194   0.1664  80.8595 0003561 106.7629   2.8369  1.00270154 36646"}}, "geometry": {"type": "Point", "coordinates": [64.69229738240892, -0.027544715893904847]}}, {"type": "Feature", "properties": {"norad_id": 41240, "name": "JASON-3", "group": "resource", "lat": -2.43596950430882, "lon": 159.0057906993253, "alt_km": 1312.8833300537235, "timestamp": "2025-12-11T15:53:39.199461+00:00", "meta": {"OBJECT_NAME": "JASON-3", "OBJECT_ID": "2016-002A", "EPOCH": "2025-12-11T06:35:15.477216", "MEAN_MOTION": 12.87626489, "ECCENTRICITY": 0.00071503, "INCLINATION": 66.0389, "RA_OF_ASC_NODE": 160.9048, "ARG_OF_PERICENTER": 270.7403, "MEAN_ANOMALY": 89.2797, "EPHEMERIS_TYPE": 0, "CLASSIFICATION_TYPE": "U", "NORAD_CAT_ID": 41240, "ELEMENT_SET_NO": 999, "REV_AT_EPOCH": 46305, "BSTAR": 0.00013297585, "MEAN_MOTION_DOT": -2.9e-07, "MEAN_MOTION_DDOT": 0}, "tle": {"line1": "1 41240U 16002A   25345.27448469 -.00000029  00000+0  13298-3 0  9990", "line2": "2 41240  66.0389 160.9048 0007150 270.7403  89.2797 12.87626489463052"}}, "geometry": {"type": "Point", "coordinates": [159.0057906993253, -2.43596950430882]}}]}